<?xml version="1.0" encoding="UTF-8"?>
<kml xmlns="http://www.opengis.net/kml/2.2"><Document><name>Kamikura mountain foot · study area</name><Style id="area"><LineStyle><color>ff2f5fd3</color><width>3</width></LineStyle><PolyStyle><color>332f5fd3</color></PolyStyle></Style><Style id="edge"><LineStyle><color>ff2f5fd3</color><width>2</width></LineStyle></Style><Style id="tr"><LineStyle><color>ff944f2f</color><width>3</width></LineStyle></Style><Placemark><name>神倉山麓 study area · Kamikura mountain foot</name><description>area_ha: 5.23; ns_m: 286; ew_m: 234; buildings: 127</description><styleUrl>#area</styleUrl><Polygon><outerBoundaryIs><LinearRing><coordinates>135.9836194,33.726331,0 135.9840554,33.726331,0 135.9845219,33.726405,0 135.9850961,33.7263717,0 135.9850898,33.7263156,0 135.9853202,33.7263068,0 135.9860946,33.726277,0 135.9860773,33.7259674,0 135.9860372,33.7257789,0 135.9859574,33.7256166,0 135.9855145,33.7249827,0 135.9855229,33.7244452,0 135.9855144,33.7243303,0 135.985603,33.7242517,0 135.9855687,33.7240578,0 135.9855186,33.7238281,0 135.9850696,33.7238984,0 135.9846294,33.7239339,0 135.9846289,33.7239301,0 135.9842304,33.7239636,0 135.9838465,33.7239636,0 135.9838465,33.7239662,0 135.9838411,33.7239707,0 135.9838357,33.7239752,0 135.9838357,33.7239842,0 135.9838303,33.7239888,0 135.9838249,33.7239933,0 135.9838249,33.7240023,0 135.9838195,33.7240068,0 135.9838141,33.7240113,0 135.9838141,33.7240203,0 135.9838141,33.7240293,0 135.9838087,33.7240338,0 135.9838033,33.7240383,0 135.9838033,33.7240474,0 135.9838033,33.7240564,0 135.9838033,33.7240654,0 135.9838033,33.7240744,0 135.9838033,33.7240834,0 135.9838033,33.7240924,0 135.9838033,33.7241015,0 135.9838033,33.7241105,0 135.9838033,33.7241195,0 135.9838033,33.7241285,0 135.9838033,33.7241375,0 135.9838033,33.7241465,0 135.9838033,33.7241556,0 135.9838033,33.7241646,0 135.9838033,33.7241736,0 135.9837979,33.7241781,0 135.9837925,33.7241826,0 135.9837871,33.7241871,0 135.9837763,33.7241871,0 135.9837709,33.7241916,0 135.9837655,33.7241961,0 135.9837601,33.7242006,0 135.9837547,33.7242051,0 135.9837493,33.7242097,0 135.9837439,33.7242142,0 135.9837385,33.7242187,0 135.9837385,33.7242277,0 135.9837331,33.7242322,0 135.9837277,33.7242367,0 135.9837223,33.7242412,0 135.9837169,33.7242457,0 135.9837169,33.7242547,0 135.9837115,33.7242592,0 135.9837061,33.7242637,0 135.9837061,33.7242728,0 135.9837007,33.7242773,0 135.9836953,33.7242818,0 135.9836953,33.7242908,0 135.9836953,33.7242998,0 135.9836899,33.7243043,0 135.9836846,33.7243088,0 135.9836845,33.7243178,0 135.9836845,33.7243269,0 135.9836845,33.7243359,0 135.9836845,33.7243449,0 135.9836845,33.7243539,0 135.9836845,33.7243629,0 135.9836845,33.7243719,0 135.9836845,33.724381,0 135.9836845,33.72439,0 135.9836791,33.7243945,0 135.9836737,33.724399,0 135.9836737,33.724408,0 135.9836737,33.724417,0 135.9836683,33.7244215,0 135.9836629,33.724426,0 135.9836629,33.7244351,0 135.9836629,33.7244441,0 135.9836629,33.7244531,0 135.9836629,33.7244621,0 135.9836629,33.7244711,0 135.9836629,33.7244801,0 135.9836629,33.7244892,0 135.9836629,33.7244982,0 135.9836629,33.7245072,0 135.9836629,33.7245162,0 135.9836629,33.7245252,0 135.9836629,33.7245342,0 135.9836629,33.7245433,0 135.9836629,33.7245523,0 135.9836575,33.7245568,0 135.9836521,33.7245613,0 135.9836521,33.7245703,0 135.9836521,33.7245793,0 135.9836521,33.7245883,0 135.9836467,33.7245928,0 135.9836413,33.7245974,0 135.9836413,33.7246064,0 135.9836413,33.7246154,0 135.9836359,33.7246199,0 135.9836305,33.7246244,0 135.9836305,33.7246334,0 135.9836305,33.7246424,0 135.9836305,33.7246514,0 135.9836305,33.7246605,0 135.9836305,33.7246695,0 135.9836305,33.7246785,0 135.9836251,33.724683,0 135.9836197,33.7246875,0 135.9836197,33.7246965,0 135.9836143,33.724701,0 135.9836089,33.7247055,0 135.9836089,33.7247146,0 135.9836089,33.7247236,0 135.9836035,33.7247281,0 135.9835981,33.7247326,0 135.9835981,33.7247416,0 135.9835981,33.7247506,0 135.9835981,33.7247596,0 135.9835981,33.7247687,0 135.9835927,33.7247732,0 135.9835873,33.7247777,0 135.9835873,33.7247867,0 135.9835873,33.7247957,0 135.9835873,33.7248047,0 135.9835873,33.7248137,0 135.9835873,33.7248228,0 135.9835873,33.7248318,0 135.9835873,33.7248408,0 135.9835873,33.7248498,0 135.9835873,33.7248588,0 135.9835873,33.7248678,0 135.9835873,33.7248769,0 135.9835873,33.7248859,0 135.9835873,33.7248949,0 135.9835873,33.7249039,0 135.9835927,33.7249084,0 135.9835981,33.7249129,0 135.9835981,33.7249219,0 135.9835981,33.724931,0 135.9835981,33.72494,0 135.9835981,33.724949,0 135.9835981,33.724958,0 135.9835981,33.724967,0 135.9835981,33.724976,0 135.9835981,33.7249851,0 135.9835981,33.7249941,0 135.9835981,33.7250031,0 135.9835981,33.7250121,0 135.9835981,33.7250211,0 135.9835981,33.7250301,0 135.9835981,33.7250392,0 135.9835981,33.7250482,0 135.9835981,33.7250572,0 135.9835981,33.7250662,0 135.9835981,33.7250752,0 135.9835981,33.7250842,0 135.9835981,33.7250933,0 135.9835981,33.7251023,0 135.9836035,33.7251068,0 135.9836089,33.7251113,0 135.9836089,33.7251203,0 135.9836089,33.7251293,0 135.9836089,33.7251383,0 135.9836089,33.7251474,0 135.9836089,33.7251564,0 135.9836089,33.7251654,0 135.9836089,33.7251744,0 135.9836089,33.7251834,0 135.9836088,33.7251924,0 135.9836088,33.7252015,0 135.9836035,33.725206,0 135.9835981,33.7252105,0 135.9835981,33.7252195,0 135.9835927,33.725224,0 135.9835873,33.7252285,0 135.9835873,33.7252375,0 135.9835873,33.7252465,0 135.9835819,33.725251,0 135.9835765,33.7252556,0 135.9835765,33.7252646,0 135.9835765,33.7252736,0 135.9835765,33.7252826,0 135.9835765,33.7252916,0 135.9835765,33.7253006,0 135.9835765,33.7253097,0 135.9835765,33.7253187,0 135.9835765,33.7253277,0 135.9835764,33.7253367,0 135.9835711,33.7253412,0 135.9835657,33.7253457,0 135.9835657,33.7253547,0 135.9835657,33.7253638,0 135.9835657,33.7253728,0 135.9835656,33.7253818,0 135.9835656,33.7253908,0 135.9835656,33.7253998,0 135.9835656,33.7254088,0 135.9835656,33.7254179,0 135.9835656,33.7254269,0 135.9835656,33.7254359,0 135.9835656,33.7254449,0 135.9835656,33.7254539,0 135.983571,33.7254584,0 135.9835764,33.7254629,0 135.9835764,33.725472,0 135.9835764,33.725481,0 135.9835818,33.7254855,0 135.9835872,33.72549,0 135.9835872,33.725499,0 135.9835926,33.7255035,0 135.983598,33.725508,0 135.983598,33.725517,0 135.9836034,33.7255215,0 135.9836088,33.7255261,0 135.9836142,33.7255306,0 135.9836196,33.7255351,0 135.9836196,33.7255441,0 135.983625,33.7255486,0 135.9836304,33.7255531,0 135.9836304,33.7255621,0 135.9836304,33.7255711,0 135.9836304,33.7255802,0 135.9836304,33.7255892,0 135.9836304,33.7255982,0 135.983625,33.7256027,0 135.9836196,33.7256072,0 135.9836196,33.7256162,0 135.9836196,33.7256252,0 135.9836196,33.7256343,0 135.9836196,33.7256433,0 135.9836196,33.7256523,0 135.9836196,33.7256613,0 135.9836195,33.7256703,0 135.9836195,33.7256793,0 135.9836195,33.7256884,0 135.9836195,33.7256974,0 135.9836195,33.7257064,0 135.9836195,33.7257154,0 135.9836195,33.7257244,0 135.9836195,33.7257334,0 135.9836249,33.725738,0 135.9836303,33.7257425,0 135.9836303,33.7257515,0 135.9836303,33.7257605,0 135.9836303,33.7257695,0 135.9836303,33.7257785,0 135.9836303,33.7257875,0 135.9836303,33.7257966,0 135.9836303,33.7258056,0 135.9836357,33.7258101,0 135.9836411,33.7258146,0 135.9836411,33.7258236,0 135.9836411,33.7258326,0 135.9836465,33.7258371,0 135.9836519,33.7258416,0 135.9836519,33.7258507,0 135.9836519,33.7258597,0 135.9836519,33.7258687,0 135.9836519,33.7258777,0 135.9836519,33.7258867,0 135.9836519,33.7258957,0 135.9836519,33.7259048,0 135.9836519,33.7259138,0 135.9836465,33.7259183,0 135.9836411,33.7259228,0 135.9836357,33.7259273,0 135.9836303,33.7259318,0 135.9836303,33.7259408,0 135.9836249,33.7259453,0 135.9836195,33.7259498,0 135.9836141,33.7259543,0 135.9836087,33.7259589,0 135.9836087,33.7259679,0 135.9836033,33.7259724,0 135.9835979,33.7259769,0 135.9835979,33.7259859,0 135.9835925,33.7259904,0 135.9835871,33.7259949,0 135.9835871,33.7260039,0 135.9835871,33.726013,0 135.9835817,33.7260175,0 135.9835763,33.726022,0 135.9835763,33.726031,0 135.9835763,33.72604,0 135.9835763,33.726049,0 135.9835763,33.726058,0 135.9835763,33.7260671,0 135.9835763,33.7260761,0 135.9835763,33.7260851,0 135.9835763,33.7260941,0 135.9835763,33.7261031,0 135.9835763,33.7261121,0 135.9835763,33.7261212,0 135.9835763,33.7261302,0 135.9835763,33.7261392,0 135.9835763,33.7261482,0 135.9835817,33.7261527,0 135.9835871,33.7261572,0 135.9835871,33.7261662,0 135.9835871,33.7261753,0 135.9835925,33.7261798,0 135.9835979,33.7261843,0 135.9835979,33.7261933,0 135.9836033,33.7261978,0 135.9836087,33.7262023,0 135.9836087,33.7262113,0 135.9836087,33.7262203,0 135.9836087,33.7262294,0 135.9836086,33.7262384,0 135.9836086,33.7262474,0 135.9836086,33.7262564,0 135.9836086,33.7262654,0 135.9836086,33.7262744,0 135.9836086,33.7262835,0 135.9836086,33.7262925,0 135.9836086,33.7263015,0 135.9836086,33.7263105,0 135.983614,33.726315,0 135.9836194,33.7263195,0 135.9836194,33.7263285,0 135.9836194,33.726331,0</coordinates></LinearRing></outerBoundaryIs></Polygon></Placemark><Placemark><name>west edge</name><description>rule: 25 m (horizontal) upslope of the slope break on GSI DEM1A (1 m)</description><styleUrl>#edge</styleUrl><LineString><coordinates>135.9836194,33.726331,0 135.9836248,33.726331,0</coordinates></LineString></Placemark><Placemark><name>west edge</name><description>rule: 25 m (horizontal) upslope of the slope break on GSI DEM1A (1 m)</description><styleUrl>#edge</styleUrl><LineString><coordinates>135.9838519,33.7239636,0 135.9838465,33.7239636,0 135.9838465,33.7239662,0 135.9838411,33.7239707,0 135.9838357,33.7239752,0 135.9838357,33.7239842,0 135.9838303,33.7239888,0 135.9838249,33.7239933,0 135.9838249,33.7240023,0 135.9838195,33.7240068,0 135.9838141,33.7240113,0 135.9838141,33.7240203,0 135.9838141,33.7240293,0 135.9838087,33.7240338,0 135.9838033,33.7240383,0 135.9838033,33.7240474,0 135.9838033,33.7240564,0 135.9838033,33.7240654,0 135.9838033,33.7240744,0 135.9838033,33.7240834,0 135.9838033,33.7240924,0 135.9838033,33.7241015,0 135.9838033,33.7241105,0 135.9838033,33.7241195,0 135.9838033,33.7241285,0 135.9838033,33.7241375,0 135.9838033,33.7241465,0 135.9838033,33.7241556,0 135.9838033,33.7241646,0 135.9838033,33.7241736,0 135.9837979,33.7241781,0 135.9837925,33.7241826,0 135.9837871,33.7241871,0 135.9837763,33.7241871,0 135.9837709,33.7241916,0 135.9837655,33.7241961,0 135.9837601,33.7242006,0 135.9837547,33.7242051,0 135.9837493,33.7242097,0 135.9837439,33.7242142,0 135.9837385,33.7242187,0 135.9837385,33.7242277,0 135.9837331,33.7242322,0 135.9837277,33.7242367,0 135.9837223,33.7242412,0 135.9837169,33.7242457,0 135.9837169,33.7242547,0 135.9837115,33.7242592,0 135.9837061,33.7242637,0 135.9837061,33.7242728,0 135.9837007,33.7242773,0 135.9836953,33.7242818,0 135.9836953,33.7242908,0 135.9836953,33.7242998,0 135.9836899,33.7243043,0 135.9836846,33.7243088,0 135.9836845,33.7243178,0 135.9836845,33.7243269,0 135.9836845,33.7243359,0 135.9836845,33.7243449,0 135.9836845,33.7243539,0 135.9836845,33.7243629,0 135.9836845,33.7243719,0 135.9836845,33.724381,0 135.9836845,33.72439,0 135.9836791,33.7243945,0 135.9836737,33.724399,0 135.9836737,33.724408,0 135.9836737,33.724417,0 135.9836683,33.7244215,0 135.9836629,33.724426,0 135.9836629,33.7244351,0 135.9836629,33.7244441,0 135.9836629,33.7244531,0 135.9836629,33.7244621,0 135.9836629,33.7244711,0 135.9836629,33.7244801,0 135.9836629,33.7244892,0 135.9836629,33.7244982,0 135.9836629,33.7245072,0 135.9836629,33.7245162,0 135.9836629,33.7245252,0 135.9836629,33.7245342,0 135.9836629,33.7245433,0 135.9836629,33.7245523,0 135.9836575,33.7245568,0 135.9836521,33.7245613,0 135.9836521,33.7245703,0 135.9836521,33.7245793,0 135.9836521,33.7245883,0 135.9836467,33.7245928,0 135.9836413,33.7245974,0 135.9836413,33.7246064,0 135.9836413,33.7246154,0 135.9836359,33.7246199,0 135.9836305,33.7246244,0 135.9836305,33.7246334,0 135.9836305,33.7246424,0 135.9836305,33.7246514,0 135.9836305,33.7246605,0 135.9836305,33.7246695,0 135.9836305,33.7246785,0 135.9836251,33.724683,0 135.9836197,33.7246875,0 135.9836197,33.7246965,0 135.9836143,33.724701,0 135.9836089,33.7247055,0 135.9836089,33.7247146,0 135.9836089,33.7247236,0 135.9836035,33.7247281,0 135.9835981,33.7247326,0 135.9835981,33.7247416,0 135.9835981,33.7247506,0 135.9835981,33.7247596,0 135.9835981,33.7247687,0 135.9835927,33.7247732,0 135.9835873,33.7247777,0 135.9835873,33.7247867,0 135.9835873,33.7247957,0 135.9835873,33.7248047,0 135.9835873,33.7248137,0 135.9835873,33.7248228,0 135.9835873,33.7248318,0 135.9835873,33.7248408,0 135.9835873,33.7248498,0 135.9835873,33.7248588,0 135.9835873,33.7248678,0 135.9835873,33.7248769,0 135.9835873,33.7248859,0 135.9835873,33.7248949,0 135.9835873,33.7249039,0 135.9835927,33.7249084,0 135.9835981,33.7249129,0 135.9835981,33.7249219,0 135.9835981,33.724931,0 135.9835981,33.72494,0 135.9835981,33.724949,0 135.9835981,33.724958,0 135.9835981,33.724967,0 135.9835981,33.724976,0 135.9835981,33.7249851,0 135.9835981,33.7249941,0 135.9835981,33.7250031,0 135.9835981,33.7250121,0 135.9835981,33.7250211,0 135.9835981,33.7250301,0 135.9835981,33.7250392,0 135.9835981,33.7250482,0 135.9835981,33.7250572,0 135.9835981,33.7250662,0 135.9835981,33.7250752,0 135.9835981,33.7250842,0 135.9835981,33.7250933,0 135.9835981,33.7251023,0 135.9836035,33.7251068,0 135.9836089,33.7251113,0 135.9836089,33.7251203,0 135.9836089,33.7251293,0 135.9836089,33.7251383,0 135.9836089,33.7251474,0 135.9836089,33.7251564,0 135.9836089,33.7251654,0 135.9836089,33.7251744,0 135.9836089,33.7251834,0 135.9836088,33.7251924,0 135.9836088,33.7252015,0 135.9836035,33.725206,0 135.9835981,33.7252105,0 135.9835981,33.7252195,0 135.9835927,33.725224,0 135.9835873,33.7252285,0 135.9835873,33.7252375,0 135.9835873,33.7252465,0 135.9835819,33.725251,0 135.9835765,33.7252556,0 135.9835765,33.7252646,0 135.9835765,33.7252736,0 135.9835765,33.7252826,0 135.9835765,33.7252916,0 135.9835765,33.7253006,0 135.9835765,33.7253097,0 135.9835765,33.7253187,0 135.9835765,33.7253277,0 135.9835764,33.7253367,0 135.9835711,33.7253412,0 135.9835657,33.7253457,0 135.9835657,33.7253547,0 135.9835657,33.7253638,0 135.9835657,33.7253728,0 135.9835656,33.7253818,0 135.9835656,33.7253908,0 135.9835656,33.7253998,0 135.9835656,33.7254088,0 135.9835656,33.7254179,0 135.9835656,33.7254269,0 135.9835656,33.7254359,0 135.9835656,33.7254449,0 135.9835656,33.7254539,0 135.983571,33.7254584,0 135.9835764,33.7254629,0 135.9835764,33.725472,0 135.9835764,33.725481,0 135.9835818,33.7254855,0 135.9835872,33.72549,0 135.9835872,33.725499,0 135.9835926,33.7255035,0 135.983598,33.725508,0 135.983598,33.725517,0 135.9836034,33.7255215,0 135.9836088,33.7255261,0 135.9836142,33.7255306,0 135.9836196,33.7255351,0 135.9836196,33.7255441,0 135.983625,33.7255486,0 135.9836304,33.7255531,0 135.9836304,33.7255621,0 135.9836304,33.7255711,0 135.9836304,33.7255802,0 135.9836304,33.7255892,0 135.9836304,33.7255982,0 135.983625,33.7256027,0 135.9836196,33.7256072,0 135.9836196,33.7256162,0 135.9836196,33.7256252,0 135.9836196,33.7256343,0 135.9836196,33.7256433,0 135.9836196,33.7256523,0 135.9836196,33.7256613,0 135.9836195,33.7256703,0 135.9836195,33.7256793,0 135.9836195,33.7256884,0 135.9836195,33.7256974,0 135.9836195,33.7257064,0 135.9836195,33.7257154,0 135.9836195,33.7257244,0 135.9836195,33.7257334,0 135.9836249,33.725738,0 135.9836303,33.7257425,0 135.9836303,33.7257515,0 135.9836303,33.7257605,0 135.9836303,33.7257695,0 135.9836303,33.7257785,0 135.9836303,33.7257875,0 135.9836303,33.7257966,0 135.9836303,33.7258056,0 135.9836357,33.7258101,0 135.9836411,33.7258146,0 135.9836411,33.7258236,0 135.9836411,33.7258326,0 135.9836465,33.7258371,0 135.9836519,33.7258416,0 135.9836519,33.7258507,0 135.9836519,33.7258597,0 135.9836519,33.7258687,0 135.9836519,33.7258777,0 135.9836519,33.7258867,0 135.9836519,33.7258957,0 135.9836519,33.7259048,0 135.9836519,33.7259138,0 135.9836465,33.7259183,0 135.9836411,33.7259228,0 135.9836357,33.7259273,0 135.9836303,33.7259318,0 135.9836303,33.7259408,0 135.9836249,33.7259453,0 135.9836195,33.7259498,0 135.9836141,33.7259543,0 135.9836087,33.7259589,0 135.9836087,33.7259679,0 135.9836033,33.7259724,0 135.9835979,33.7259769,0 135.9835979,33.7259859,0 135.9835925,33.7259904,0 135.9835871,33.7259949,0 135.9835871,33.7260039,0 135.9835871,33.726013,0 135.9835817,33.7260175,0 135.9835763,33.726022,0 135.9835763,33.726031,0 135.9835763,33.72604,0 135.9835763,33.726049,0 135.9835763,33.726058,0 135.9835763,33.7260671,0 135.9835763,33.7260761,0 135.9835763,33.7260851,0 135.9835763,33.7260941,0 135.9835763,33.7261031,0 135.9835763,33.7261121,0 135.9835763,33.7261212,0 135.9835763,33.7261302,0 135.9835763,33.7261392,0 135.9835763,33.7261482,0 135.9835817,33.7261527,0 135.9835871,33.7261572,0 135.9835871,33.7261662,0 135.9835871,33.7261753,0 135.9835925,33.7261798,0 135.9835979,33.7261843,0 135.9835979,33.7261933,0 135.9836033,33.7261978,0 135.9836087,33.7262023,0 135.9836087,33.7262113,0 135.9836087,33.7262203,0 135.9836087,33.7262294,0 135.9836086,33.7262384,0 135.9836086,33.7262474,0 135.9836086,33.7262564,0 135.9836086,33.7262654,0 135.9836086,33.7262744,0 135.9836086,33.7262835,0 135.9836086,33.7262925,0 135.9836086,33.7263015,0 135.9836086,33.7263105,0 135.983614,33.726315,0 135.9836194,33.7263195,0 135.9836194,33.7263285,0 135.9836194,33.726331,0</coordinates></LineString></Placemark><Placemark><name>north edge</name><description>rule: lane closing the first full block north of the school and the temple row (OSM 266991552, 121369902)</description><styleUrl>#edge</styleUrl><LineString><coordinates>135.983614,33.7263309,0 135.9840554,33.726331,0 135.9845218,33.726405,0 135.9850961,33.7263717,0 135.9850898,33.7263156,0 135.9853202,33.7263068,0 135.9860947,33.726277,0</coordinates></LineString></Placemark><Placemark><name>east edge</name><description>rule: street bounding the 千穂小学校 compound on the east, continued south (OSM 121367848, 1031510641, 121367953)</description><styleUrl>#edge</styleUrl><LineString><coordinates>135.9860947,33.726277,0 135.9860773,33.7259674,0 135.9860372,33.7257789,0 135.9859574,33.7256166,0 135.9855145,33.7249827,0 135.9855229,33.7244452,0 135.9855144,33.7243303,0 135.985603,33.7242517,0 135.9855688,33.7240578,0 135.9855186,33.7238281,0</coordinates></LineString></Placemark><Placemark><name>south edge</name><description>rule: street just south of the shrine-entrance cluster, carried west across the foot of the steps (OSM 121367975, 121370515, 499568826)</description><styleUrl>#edge</styleUrl><LineString><coordinates>135.9838411,33.7239636,0 135.9842304,33.7239637,0 135.984629,33.7239301,0 135.9846295,33.7239339,0 135.9850696,33.7238984,0 135.9855186,33.7238281,0 135.9855197,33.723828,0</coordinates></LineString></Placemark><Placemark><name>slope break</name><description>rule: edge of ground ≥1 m above the plain and steeper than 12° (or ≥3 m above it), connected to the slopes above 40 m; GSI DEM1A</description><styleUrl>#edge</styleUrl><LineString><coordinates>135.9836623,33.7279966,0 135.9836569,33.7279921,0 135.9836515,33.7279876,0 135.9836461,33.7279831,0 135.9836407,33.7279786,0 135.9836353,33.7279741,0 135.9836299,33.7279696,0 135.9836245,33.7279651,0 135.9836191,33.7279605,0 135.9836191,33.7279515,0 135.9836245,33.727947,0 135.9836299,33.7279425,0 135.9836299,33.7279335,0 135.9836353,33.727929,0 135.9836407,33.7279245,0 135.9836407,33.7279155,0 135.9836407,33.7279064,0 135.9836461,33.7279019,0 135.9836515,33.7278974,0 135.9836569,33.7278929,0 135.9836677,33.7278929,0 135.9836731,33.7278884,0 135.9836785,33.7278839,0 135.9836893,33.7278839,0 135.9836947,33.7278884,0 135.9837001,33.7278929,0 135.9837055,33.7278884,0 135.9837109,33.7278839,0 135.9837162,33.7278794,0 135.9837216,33.7278749,0 135.983727,33.7278704,0 135.9837216,33.7278659,0 135.9837163,33.7278614,0 135.9837109,33.7278569,0 135.9837055,33.7278524,0 135.9837001,33.7278478,0 135.9836947,33.7278524,0 135.9836893,33.7278569,0 135.9836839,33.7278524,0 135.9836785,33.7278478,0 135.9836731,33.7278433,0 135.9836731,33.7278343,0 135.9836677,33.7278298,0 135.9836623,33.7278253,0 135.9836623,33.7278163,0 135.9836623,33.7278073,0 135.9836677,33.7278028,0 135.9836785,33.7278028,0 135.9836839,33.7277983,0 135.9836893,33.7277937,0 135.9837001,33.7277937,0 135.9837055,33.7277892,0 135.9837109,33.7277847,0 135.9837163,33.7277802,0 135.9837217,33.7277757,0 135.9837271,33.7277712,0 135.9837271,33.7277622,0 135.9837271,33.7277532,0 135.9837271,33.7277442,0 135.9837217,33.7277397,0 135.9837163,33.7277351,0 135.9837109,33.7277306,0 135.9837055,33.7277261,0 135.9837001,33.7277216,0 135.9836893,33.7277216,0 135.9836785,33.7277216,0 135.9836677,33.7277216,0 135.9836623,33.7277171,0 135.9836569,33.7277126,0 135.9836461,33.7277126,0 135.9836407,33.7277081,0 135.9836407,33.7276991,0 135.9836461,33.7276946,0 135.9836515,33.7276901,0 135.9836515,33.727681,0 135.9836461,33.7276765,0 135.9836408,33.727672,0 135.9836408,33.727663,0 135.9836354,33.7276585,0 135.98363,33.727654,0 135.98363,33.727645,0 135.98363,33.7276359,0 135.9836246,33.7276314,0 135.9836192,33.7276269,0 135.9836138,33.7276224,0 135.9836084,33.7276179,0 135.983603,33.7276134,0 135.9835976,33.7276089,0 135.9835922,33.7276044,0 135.9835868,33.7275999,0 135.9835814,33.7275954,0 135.983576,33.7275909,0 135.9835706,33.7275864,0 135.9835652,33.7275818,0 135.9835652,33.7275728,0 135.9835706,33.7275683,0 135.983576,33.7275638,0 135.9835706,33.7275593,0 135.9835652,33.7275548,0 135.9835652,33.7275458,0 135.9835652,33.7275368,0 135.9835598,33.7275322,0 135.9835544,33.7275277,0 135.9835491,33.7275232,0 135.9835437,33.7275187,0 135.9835383,33.7275142,0 135.9835329,33.7275097,0 135.9835275,33.7275052,0 135.9835221,33.7275007,0 135.9835167,33.7274962,0 135.9835113,33.7274917,0 135.9835059,33.7274872,0 135.9834951,33.7274872,0 135.9834897,33.7274826,0 135.9834843,33.7274781,0 135.9834789,33.7274736,0 135.9834789,33.7274646,0 135.9834789,33.7274556,0 135.9834789,33.7274466,0 135.9834789,33.7274376,0 135.9834789,33.7274285,0 135.9834843,33.727424,0 135.9834897,33.7274195,0 135.9834843,33.727415,0 135.9834789,33.7274105,0 135.9834789,33.7274015,0 135.9834789,33.7273925,0 135.9834789,33.7273835,0 135.9834789,33.7273744,0 135.9834789,33.7273654,0 135.9834789,33.7273564,0 135.9834843,33.7273519,0 135.9834897,33.7273474,0 135.9834897,33.7273384,0 135.9834951,33.7273339,0 135.9835059,33.7273339,0 135.9835113,33.7273294,0 135.9835167,33.7273249,0 135.9835275,33.7273249,0 135.9835329,33.7273204,0 135.9835383,33.7273158,0 135.9835491,33.7273158,0 135.9835599,33.7273159,0 135.9835707,33.7273159,0 135.9835761,33.7273113,0 135.9835815,33.7273068,0 135.9835923,33.7273068,0 135.9835977,33.7273023,0 135.9836031,33.7272978,0 135.9836084,33.7272933,0 135.9836138,33.7272888,0 135.9836192,33.7272843,0 135.9836192,33.7272753,0 135.9836246,33.7272708,0 135.98363,33.7272663,0 135.98363,33.7272573,0 135.9836354,33.7272527,0 135.9836408,33.7272482,0 135.9836408,33.7272392,0 135.9836462,33.7272347,0 135.9836516,33.7272302,0 135.9836516,33.7272212,0 135.9836516,33.7272122,0 135.983657,33.7272077,0 135.9836624,33.7272032,0 135.9836624,33.7271941,0 135.9836678,33.7271896,0 135.9836732,33.7271851,0 135.9836786,33.7271806,0 135.983684,33.7271761,0 135.983684,33.7271671,0 135.983684,33.7271581,0 135.983684,33.7271491,0 135.9836894,33.7271446,0 135.9836948,33.72714,0 135.9837002,33.7271355,0 135.9837056,33.727131,0 135.983711,33.7271265,0 135.9837164,33.727122,0 135.9837218,33.7271175,0 135.9837272,33.727113,0 135.9837272,33.727104,0 135.9837272,33.727095,0 135.9837326,33.7270905,0 135.983738,33.727086,0 135.983738,33.7270769,0 135.983738,33.7270679,0 135.983738,33.7270589,0 135.9837434,33.7270544,0 135.9837488,33.7270499,0 135.9837488,33.7270409,0 135.9837542,33.7270364,0 135.9837596,33.7270319,0 135.9837596,33.7270228,0 135.9837596,33.7270138,0 135.983765,33.7270093,0 135.9837704,33.7270048,0 135.9837704,33.7269958,0 135.9837704,33.7269868,0 135.9837758,33.7269823,0 135.9837812,33.7269778,0 135.9837812,33.7269687,0 135.9837812,33.7269597,0 135.9837866,33.7269552,0 135.983792,33.7269507,0 135.983792,33.7269417,0 135.983792,33.7269327,0 135.983792,33.7269237,0 135.983792,33.7269146,0 135.983792,33.7269056,0 135.983792,33.7268966,0 135.9837974,33.7268921,0 135.9838028,33.7268966,0 135.9838082,33.7269011,0 135.9838136,33.7269056,0 135.9838189,33.7269101,0 135.9838243,33.7269056,0 135.9838297,33.7269011,0 135.9838351,33.7268966,0 135.9838405,33.7268921,0 135.9838459,33.7268876,0 135.9838513,33.7268831,0 135.9838567,33.7268786,0 135.9838567,33.7268696,0 135.9838621,33.7268651,0 135.9838675,33.7268606,0 135.9838675,33.7268515,0 135.9838729,33.726847,0 135.9838783,33.7268425,0 135.9838729,33.726838,0 135.9838675,33.7268335,0 135.9838621,33.726829,0 135.9838567,33.7268245,0 135.9838513,33.72682,0 135.9838459,33.7268245,0 135.9838405,33.726829,0 135.9838351,33.7268335,0 135.9838298,33.726838,0 135.9838244,33.7268425,0 135.983819,33.726847,0 135.9838136,33.7268425,0 135.9838136,33.7268335,0 135.9838136,33.7268245,0 135.9838136,33.7268155,0 135.9838136,33.7268064,0 135.983819,33.7268019,0 135.9838244,33.7267974,0 135.9838298,33.7267929,0 135.9838352,33.7267884,0 135.9838298,33.7267839,0 135.9838244,33.7267794,0 135.983819,33.7267749,0 135.9838136,33.7267704,0 135.9838082,33.7267659,0 135.9838028,33.7267614,0 135.9837974,33.7267569,0 135.9837866,33.7267569,0 135.9837812,33.7267523,0 135.9837758,33.7267478,0 135.983765,33.7267478,0 135.9837596,33.7267433,0 135.9837542,33.7267388,0 135.9837488,33.7267343,0 135.9837434,33.7267298,0 135.983738,33.7267253,0 135.9837381,33.7267163,0 135.9837434,33.7267118,0 135.9837488,33.7267073,0 135.9837488,33.7266982,0 135.9837488,33.7266892,0 135.9837542,33.7266847,0 135.9837596,33.7266802,0 135.9837596,33.7266712,0 135.9837596,33.7266622,0 135.9837596,33.7266532,0 135.983765,33.7266486,0 135.9837704,33.7266441,0 135.9837704,33.7266351,0 135.9837704,33.7266261,0 135.9837758,33.7266216,0 135.9837812,33.7266171,0 135.9837812,33.7266081,0 135.9837866,33.7266036,0 135.983792,33.7265991,0 135.9837974,33.7265946,0 135.9838028,33.72659,0 135.9838082,33.7265855,0 135.9838136,33.726581,0 135.983819,33.7265765,0 135.9838244,33.726572,0 135.9838298,33.7265675,0 135.9838352,33.726563,0 135.9838352,33.726554,0 135.9838352,33.726545,0 135.9838406,33.7265405,0 135.983846,33.726536,0 135.983846,33.7265269,0 135.9838514,33.7265224,0 135.9838568,33.7265179,0 135.9838568,33.7265089,0 135.9838622,33.7265044,0 135.9838676,33.7264999,0 135.9838676,33.7264909,0 135.983873,33.7264864,0 135.9838784,33.7264819,0 135.9838784,33.7264728,0 135.9838784,33.7264638,0 135.9838784,33.7264548,0 135.9838784,33.7264458,0 135.9838838,33.7264413,0 135.9838892,33.7264368,0 135.9838892,33.7264278,0 135.9838892,33.7264187,0 135.9838946,33.7264142,0 135.9839,33.7264097,0 135.9839,33.7264007,0 135.9839054,33.7263962,0 135.9839108,33.7263917,0 135.9839162,33.7263872,0 135.9839216,33.7263827,0 135.9839216,33.7263737,0 135.9839216,33.7263646,0 135.983927,33.7263601,0 135.9839324,33.7263556,0 135.9839324,33.7263466,0 135.9839324,33.7263376,0 135.983927,33.7263331,0 135.9839216,33.7263286,0 135.9839216,33.7263196,0 135.9839162,33.7263151,0 135.9839108,33.7263105,0 135.9839054,33.726306,0 135.9839,33.7263015,0 135.9839,33.7262925,0 135.9838946,33.726288,0 135.9838892,33.7262835,0 135.9838838,33.726279,0 135.9838784,33.7262745,0 135.9838784,33.7262655,0 135.983873,33.7262609,0 135.9838676,33.7262564,0 135.983873,33.7262519,0 135.9838784,33.7262474,0 135.9838838,33.7262429,0 135.9838892,33.7262384,0 135.9838946,33.7262339,0 135.9839,33.7262294,0 135.9839,33.7262204,0 135.9839,33.7262114,0 135.9838946,33.7262069,0 135.9838892,33.7262023,0 135.9838946,33.7261978,0 135.9839,33.7261933,0 135.9839,33.7261843,0 135.9839,33.7261753,0 135.9839054,33.7261708,0 135.9839162,33.7261708,0 135.9839216,33.7261663,0 135.983927,33.7261618,0 135.9839324,33.7261573,0 135.9839378,33.7261528,0 135.9839432,33.7261482,0 135.9839378,33.7261437,0 135.9839324,33.7261392,0 135.9839324,33.7261302,0 135.983927,33.7261257,0 135.9839216,33.7261212,0 135.9839162,33.7261167,0 135.9839108,33.7261122,0 135.9839054,33.7261077,0 135.9838946,33.7261077,0 135.9838838,33.7261077,0 135.9838784,33.7261032,0 135.9838731,33.7260986,0 135.9838623,33.7260986,0 135.9838515,33.7260986,0 135.9838407,33.7260986,0 135.9838353,33.7260941,0 135.9838353,33.7260851,0 135.9838353,33.7260761,0 135.9838407,33.7260716,0 135.9838461,33.7260671,0 135.9838515,33.7260626,0 135.9838623,33.7260626,0 135.9838677,33.7260581,0 135.9838731,33.7260536,0 135.9838785,33.7260491,0 135.9838839,33.7260446,0 135.9838892,33.72604,0 135.9838946,33.7260355,0 135.9839,33.726031,0 135.9839054,33.7260265,0 135.9839108,33.726022,0 135.9839108,33.726013,0 135.9839054,33.7260085,0 135.9839,33.726004,0 135.9839,33.725995,0 135.9839054,33.7259905,0 135.9839108,33.7259859,0 135.9839162,33.7259814,0 135.9839216,33.7259769,0 135.9839216,33.7259679,0 135.9839216,33.7259589,0 135.9839216,33.7259499,0 135.9839216,33.7259409,0 135.9839162,33.7259364,0 135.9839109,33.7259318,0 135.9839109,33.7259228,0 135.9839109,33.7259138,0 135.9839109,33.7259048,0 135.9839163,33.7259003,0 135.9839216,33.7258958,0 135.983927,33.7258913,0 135.9839324,33.7258868,0 135.9839324,33.7258777,0 135.9839378,33.7258732,0 135.9839432,33.7258687,0 135.9839432,33.7258597,0 135.9839432,33.7258507,0 135.9839378,33.7258462,0 135.9839325,33.7258417,0 135.9839325,33.7258327,0 135.9839271,33.7258282,0 135.9839217,33.7258236,0 135.9839217,33.7258146,0 135.9839217,33.7258056,0 135.9839163,33.7258011,0 135.9839109,33.7257966,0 135.9839109,33.7257876,0 135.9839109,33.7257786,0 135.9839055,33.7257741,0 135.9839001,33.7257695,0 135.9839001,33.7257605,0 135.9838947,33.725756,0 135.9838893,33.7257515,0 135.9838893,33.7257425,0 135.9838893,33.7257335,0 135.9838893,33.7257245,0 135.9838893,33.7257154,0 135.9838893,33.7257064,0 135.9838893,33.7256974,0 135.9838893,33.7256884,0 135.9838839,33.7256839,0 135.9838785,33.7256794,0 135.9838785,33.7256704,0 135.9838785,33.7256613,0 135.9838839,33.7256568,0 135.9838893,33.7256523,0 135.9838893,33.7256433,0 135.9838893,33.7256343,0 135.9838893,33.7256253,0 135.9838947,33.7256208,0 135.9839001,33.7256163,0 135.9839001,33.7256072,0 135.9839001,33.7255982,0 135.9839001,33.7255892,0 135.9839001,33.7255802,0 135.9838947,33.7255757,0 135.9838893,33.7255712,0 135.9838893,33.7255622,0 135.9838947,33.7255577,0 135.9839001,33.7255531,0 135.9839055,33.7255486,0 135.9839109,33.7255441,0 135.9839163,33.7255396,0 135.9839217,33.7255351,0 135.9839271,33.7255306,0 135.9839325,33.7255261,0 135.9839325,33.7255171,0 135.9839325,33.7255081,0 135.9839325,33.7254991,0 135.9839271,33.7254945,0 135.9839217,33.72549,0 135.9839217,33.725481,0 135.9839163,33.7254765,0 135.9839109,33.725472,0 135.9839109,33.725463,0 135.9839109,33.725454,0 135.9839109,33.7254449,0 135.9839109,33.7254359,0 135.9839109,33.7254269,0 135.9839109,33.7254179,0 135.9839109,33.7254089,0 135.983911,33.7253999,0 135.9839056,33.7253954,0 135.9839002,33.7253908,0 135.9838948,33.7253863,0 135.9838894,33.7253818,0 135.983884,33.7253773,0 135.9838786,33.7253818,0 135.9838732,33.7253863,0 135.9838678,33.7253908,0 135.9838624,33.7253954,0 135.983857,33.7253999,0 135.9838516,33.7254044,0 135.9838408,33.7254044,0 135.98383,33.7254044,0 135.9838246,33.7253999,0 135.98383,33.7253953,0 135.9838354,33.7253908,0 135.9838354,33.7253818,0 135.9838354,33.7253728,0 135.9838354,33.7253638,0 135.9838354,33.7253548,0 135.9838354,33.7253458,0 135.9838354,33.7253367,0 135.9838354,33.7253277,0 135.9838354,33.7253187,0 135.9838354,33.7253097,0 135.9838408,33.7253052,0 135.9838462,33.7253007,0 135.9838516,33.7252962,0 135.983857,33.7252917,0 135.9838624,33.7252872,0 135.9838678,33.7252826,0 135.9838678,33.7252736,0 135.9838732,33.7252691,0 135.9838786,33.7252646,0 135.9838786,33.7252556,0 135.9838786,33.7252466,0 135.9838786,33.7252376,0 135.9838786,33.7252285,0 135.9838786,33.7252195,0 135.9838786,33.7252105,0 135.9838786,33.7252015,0 135.9838732,33.725197,0 135.9838678,33.7251925,0 135.9838678,33.7251835,0 135.9838678,33.7251744,0 135.9838732,33.7251699,0 135.9838786,33.7251654,0 135.9838786,33.7251564,0 135.9838786,33.7251474,0 135.9838786,33.7251384,0 135.9838786,33.7251294,0 135.9838786,33.7251203,0 135.9838786,33.7251113,0 135.9838786,33.7251023,0 135.9838786,33.7250933,0 135.9838786,33.7250843,0 135.9838786,33.7250753,0 135.9838732,33.7250708,0 135.9838679,33.7250662,0 135.9838679,33.7250572,0 135.9838625,33.7250527,0 135.9838571,33.7250482,0 135.9838571,33.7250392,0 135.9838571,33.7250302,0 135.9838571,33.7250212,0 135.9838571,33.7250121,0 135.9838571,33.7250031,0 135.9838571,33.7249941,0 135.9838571,33.7249851,0 135.9838571,33.7249761,0 135.9838571,33.7249671,0 135.9838625,33.7249626,0 135.9838679,33.724958,0 135.9838679,33.724949,0 135.9838733,33.7249445,0 135.9838787,33.72494,0 135.9838787,33.724931,0 135.9838787,33.724922,0 135.9838733,33.7249175,0 135.9838679,33.724913,0 135.9838679,33.7249039,0 135.9838679,33.7248949,0 135.9838625,33.7248904,0 135.9838571,33.7248859,0 135.9838571,33.7248769,0 135.9838571,33.7248679,0 135.9838571,33.7248589,0 135.9838517,33.7248544,0 135.9838463,33.7248498,0 135.9838463,33.7248408,0 135.9838463,33.7248318,0 135.9838517,33.7248273,0 135.9838571,33.7248228,0 135.9838571,33.7248138,0 135.9838571,33.7248048,0 135.9838571,33.7247957,0 135.9838571,33.7247867,0 135.9838625,33.7247822,0 135.9838679,33.7247777,0 135.9838733,33.7247732,0 135.9838787,33.7247687,0 135.9838787,33.7247597,0 135.9838841,33.7247552,0 135.9838895,33.7247507,0 135.9838895,33.7247416,0 135.9838895,33.7247326,0 135.9838895,33.7247236,0 135.9838895,33.7247146,0 135.9838895,33.7247056,0 135.9838895,33.7246966,0 135.9838895,33.7246876,0 135.9838895,33.7246785,0 135.9838949,33.724674,0 135.9839003,33.7246695,0 135.9839057,33.724665,0 135.9839111,33.7246605,0 135.9839111,33.7246515,0 135.9839165,33.724647,0 135.9839219,33.7246425,0 135.9839165,33.724638,0 135.9839111,33.7246335,0 135.9839111,33.7246244,0 135.9839111,33.7246154,0 135.9839165,33.7246109,0 135.9839219,33.7246064,0 135.9839219,33.7245974,0 135.9839273,33.7245929,0 135.9839327,33.7245884,0 135.9839381,33.7245839,0 135.9839435,33.7245794,0 135.9839435,33.7245703,0 135.9839381,33.7245658,0 135.9839327,33.7245613,0 135.9839327,33.7245523,0 135.9839327,33.7245433,0 135.9839381,33.7245388,0 135.9839435,33.7245343,0 135.9839381,33.7245298,0 135.9839327,33.7245253,0 135.9839273,33.7245207,0 135.9839219,33.7245162,0 135.9839219,33.7245072,0 135.9839219,33.7244982,0 135.9839219,33.7244892,0 135.9839219,33.7244802,0 135.9839273,33.7244757,0 135.9839327,33.7244712,0 135.9839327,33.7244621,0 135.9839327,33.7244531,0 135.9839381,33.7244486,0 135.9839435,33.7244441,0 135.9839489,33.7244396,0 135.9839543,33.7244351,0 135.9839597,33.7244306,0 135.9839651,33.7244261,0 135.9839597,33.7244216,0 135.9839543,33.7244171,0 135.9839543,33.724408,0 135.9839597,33.7244035,0 135.9839651,33.724399,0 135.9839597,33.7243945,0 135.9839543,33.72439,0 135.9839489,33.7243855,0 135.9839435,33.724381,0 135.9839435,33.724372,0 135.9839435,33.724363,0 135.9839489,33.7243585,0 135.9839597,33.7243585,0 135.9839651,33.7243539,0 135.9839705,33.7243494,0 135.9839759,33.7243449,0 135.9839813,33.7243404,0 135.9839867,33.7243359,0 135.9839921,33.7243314,0 135.9839975,33.7243269,0 135.9840029,33.7243224,0 135.9840083,33.7243179,0 135.9840137,33.7243134,0 135.9840245,33.7243134,0 135.9840299,33.7243089,0 135.9840352,33.7243044,0 135.9840406,33.7242999,0 135.984046,33.7242953,0 135.9840514,33.7242908,0 135.9840514,33.7242818,0 135.9840568,33.7242773,0 135.9840622,33.7242728,0 135.9840676,33.7242683,0 135.984073,33.7242638,0 135.984073,33.7242548,0 135.984073,33.7242458,0 135.984073,33.7242367,0 135.9840784,33.7242322,0 135.9840838,33.7242277,0 135.9840838,33.7242187,0 135.9840838,33.7242097,0 135.9840838,33.7242007,0 135.9840838,33.7241917,0 135.9840784,33.7241872,0 135.984073,33.7241826,0 135.984073,33.7241736,0 135.984073,33.7241646,0 135.984073,33.7241556,0 135.9840676,33.7241511,0 135.9840623,33.7241466,0 135.9840623,33.7241376,0 135.9840623,33.7241285,0 135.9840623,33.7241195,0 135.9840623,33.7241105,0 135.9840623,33.7241015,0 135.9840623,33.7240925,0 135.9840677,33.724088,0 135.9840731,33.7240835,0 135.9840785,33.724079,0 135.9840838,33.7240744,0 135.9840838,33.7240654,0 135.9840892,33.7240609,0 135.9840946,33.7240564,0 135.9841,33.7240519,0 135.9841054,33.7240474,0 135.9841054,33.7240384,0 135.9841054,33.7240294,0 135.9841054,33.7240203,0 135.9841054,33.7240113,0 135.9841054,33.7240023,0 135.9841054,33.7239933,0 135.9841054,33.7239843,0 135.9841054,33.7239753,0 135.9841054,33.7239662,0 135.9841055,33.7239572,0 135.9841055,33.7239482,0 135.9841108,33.7239437,0 135.9841162,33.7239392,0 135.9841162,33.7239302,0 135.9841162,33.7239212,0 135.9841162,33.7239122,0 135.9841163,33.7239031,0 135.9841163,33.7238941,0 135.9841163,33.7238851,0 135.9841163,33.7238761,0 135.9841163,33.7238671,0 135.9841163,33.7238581,0 135.9841109,33.7238535,0 135.9841055,33.723849,0 135.9841055,33.72384,0 135.9841055,33.723831,0 135.9841055,33.723822,0 135.9841109,33.7238175,0 135.9841163,33.723813,0 135.9841163,33.723804,0 135.9841163,33.7237949,0 135.9841217,33.7237904,0 135.9841271,33.7237859,0 135.9841325,33.7237814,0 135.9841379,33.7237859,0 135.9841432,33.7237904,0 135.9841486,33.7237859,0 135.984154,33.7237814,0 135.9841594,33.7237769,0 135.9841648,33.7237724,0 135.9841702,33.7237679,0 135.9841648,33.7237634,0 135.9841594,33.7237589,0 135.9841594,33.7237499,0 135.984154,33.7237453,0 135.9841487,33.7237408,0 135.9841433,33.7237363,0 135.9841379,33.7237318,0 135.9841325,33.7237273,0 135.9841217,33.7237273,0 135.9841163,33.7237318,0 135.9841109,33.7237363,0 135.9841001,33.7237363,0 135.9840947,33.7237318,0 135.9840893,33.7237273,0 135.9840839,33.7237228,0 135.9840785,33.7237183,0 135.9840677,33.7237183,0 135.9840623,33.7237138,0 135.9840569,33.7237093,0 135.9840461,33.7237093,0 135.9840408,33.7237048,0 135.9840354,33.7237002,0 135.9840246,33.7237002,0 135.9840192,33.7236957,0 135.9840192,33.7236867,0 135.9840138,33.7236822,0 135.9840084,33.7236777,0 135.9840084,33.7236687,0 135.9840084,33.7236597,0 135.9840084,33.7236507,0 135.9840138,33.7236461,0 135.9840192,33.7236416,0 135.9840192,33.7236326,0 135.9840246,33.7236281,0 135.98403,33.7236236,0 135.98403,33.7236146,0 135.98403,33.7236056,0 135.9840354,33.7236011,0 135.9840408,33.7235966,0 135.9840408,33.7235875,0 135.9840408,33.7235785,0 135.9840408,33.7235695,0 135.9840408,33.7235605,0 135.9840408,33.7235515,0 135.9840462,33.723547,0 135.9840516,33.7235425,0 135.9840516,33.7235334,0 135.9840516,33.7235244,0 135.984057,33.7235199,0 135.9840624,33.7235154,0 135.9840624,33.7235064,0 135.984057,33.7235019,0 135.9840516,33.7234974,0 135.9840462,33.7234929,0 135.9840408,33.7234884,0 135.9840354,33.7234839,0 135.9840246,33.7234838,0 135.9840192,33.7234793,0 135.9840138,33.7234748,0 135.9840084,33.7234703,0 135.9840084,33.7234613,0 135.9840084,33.7234523,0 135.984003,33.7234478,0 135.9839976,33.7234433,0 135.9839976,33.7234343,0 135.9839922,33.7234297,0 135.9839869,33.7234252,0 135.9839815,33.7234207,0 135.9839761,33.7234162,0 135.9839761,33.7234072,0 135.9839761,33.7233982,0 135.9839761,33.7233892,0 135.9839707,33.7233847,0 135.9839653,33.7233802,0 135.9839653,33.7233711,0 135.9839653,33.7233621,0 135.9839599,33.7233576,0 135.9839545,33.7233531,0 135.9839491,33.7233486,0 135.9839437,33.7233441,0 135.9839383,33.7233396,0 135.9839275,33.7233396,0 135.9839167,33.7233396,0 135.9839059,33.7233396,0 135.9838951,33.7233396,0 135.9838844,33.7233396,0 135.983879,33.7233441,0 135.9838736,33.7233486,0 135.9838682,33.7233531,0 135.9838628,33.7233576,0 135.983852,33.7233576,0 135.9838466,33.7233531,0 135.9838466,33.7233441,0 135.9838466,33.7233351,0 135.9838466,33.723326,0 135.9838466,33.723317,0 135.9838466,33.723308,0 135.9838466,33.723299,0 135.9838412,33.7232945,0 135.9838358,33.72329,0 135.9838358,33.723281,0 135.9838358,33.7232719,0 135.9838358,33.7232629,0 135.9838358,33.7232539,0 135.9838304,33.7232494,0 135.983825,33.7232449,0 135.983825,33.7232359,0 135.9838304,33.7232314,0 135.9838358,33.7232269,0 135.9838358,33.7232178,0 135.9838358,33.7232088,0 135.9838358,33.7231998,0 135.9838358,33.7231908,0 135.9838304,33.7231863,0 135.983825,33.7231818,0 135.983825,33.7231727,0 135.9838196,33.7231682,0 135.9838143,33.7231637,0 135.9838143,33.7231547,0 135.9838143,33.7231457,0 135.9838089,33.7231412,0 135.9838035,33.7231367,0 135.9838035,33.7231277,0 135.9837981,33.7231232,0 135.9837927,33.7231186,0 135.9837927,33.7231096,0 135.9837873,33.7231051,0 135.9837819,33.7231006,0 135.9837819,33.7230916,0 135.9837765,33.7230871,0 135.9837711,33.7230826,0 135.9837711,33.7230736,0 135.9837711,33.7230645,0 135.9837657,33.72306,0 135.9837603,33.7230555,0 135.9837603,33.7230465,0 135.9837549,33.723042,0 135.9837495,33.7230375,0 135.9837495,33.7230285,0 135.9837441,33.723024,0 135.9837387,33.7230195,0 135.9837334,33.7230149,0 135.983728,33.7230104,0 135.9837226,33.7230059,0 135.9837172,33.7230014,0 135.9837118,33.7229969,0 135.983701,33.7229969,0 135.9836956,33.7229924,0 135.9836902,33.7229879,0 135.9836794,33.7229879,0 135.983674,33.7229834,0 135.9836686,33.7229789,0 135.9836632,33.7229744,0 135.9836578,33.7229699,0 135.9836524,33.7229653,0 135.9836524,33.7229563,0 135.9836524,33.7229473,0 135.983647,33.7229428,0 135.9836416,33.7229383,0 135.9836417,33.7229293,0 135.9836417,33.7229203,0 135.9836417,33.7229112,0 135.9836417,33.7229022,0 135.9836417,33.7228932,0 135.9836417,33.7228842,0 135.9836363,33.7228797,0 135.9836309,33.7228752,0 135.9836255,33.7228707,0 135.9836201,33.7228662,0 135.9836147,33.7228616,0 135.9836093,33.7228571,0 135.9836093,33.7228481,0 135.9836039,33.7228436,0 135.9835985,33.7228391,0 135.9835985,33.7228301,0 135.9835985,33.7228211,0 135.9835985,33.7228121,0 135.9835931,33.7228075,0 135.9835877,33.722803,0 135.9835823,33.7227985,0 135.9835769,33.722794,0 135.9835715,33.7227895,0 135.9835661,33.722785,0 135.9835661,33.722776,0 135.9835608,33.7227715,0 135.9835554,33.722767,0 135.98355,33.7227625,0 135.9835446,33.7227579,0 135.9835446,33.7227489,0 135.9835446,33.7227399,0 135.9835446,33.7227309,0 135.9835446,33.7227219,0 135.98355,33.7227174,0 135.9835554,33.7227129,0 135.9835554,33.7227038,0 135.9835608,33.7226993,0 135.9835662,33.7226948,0 135.9835662,33.7226858,0 135.9835662,33.7226768,0 135.9835662,33.7226678,0 135.9835662,33.7226588,0 135.9835716,33.7226543,0 135.983577,33.7226498,0 135.983577,33.7226407,0 135.9835824,33.7226362,0 135.9835878,33.7226317,0 135.9835932,33.7226272,0 135.9836039,33.7226272,0 135.9836147,33.7226272,0 135.9836201,33.7226227,0 135.9836255,33.7226182,0 135.9836309,33.7226137,0 135.9836363,33.7226092,0 135.9836417,33.7226047,0 135.9836417,33.7225957,0 135.9836417,33.7225866,0 135.9836417,33.7225776,0 135.9836363,33.7225731,0 135.9836309,33.7225686,0 135.9836309,33.7225596,0 135.9836309,33.7225506,0 135.9836309,33.7225416,0 135.9836309,33.7225325,0 135.9836309,33.7225235,0 135.9836309,33.7225145,0 135.9836309,33.7225055,0 135.9836309,33.7224965,0 135.9836309,33.7224875,0 135.9836255,33.722483,0 135.9836202,33.7224784,0 135.9836202,33.7224694,0 135.9836202,33.7224604,0 135.9836202,33.7224514,0 135.9836148,33.7224469,0 135.9836094,33.7224424,0 135.9836094,33.7224334,0 135.983604,33.7224288,0 135.9835986,33.7224243,0 135.9835986,33.7224153,0 135.9835932,33.7224108,0 135.9835878,33.7224063,0 135.9835824,33.7224018,0 135.983577,33.7223973,0 135.9835716,33.7223928,0 135.9835662,33.7223883,0 135.9835608,33.7223838,0 135.9835554,33.7223793,0 135.98355,33.7223747,0 135.9835446,33.7223702,0 135.9835446,33.7223612,0 135.9835446,33.7223522,0 135.9835446,33.7223432,0 135.9835446,33.7223342,0 135.9835393,33.7223297,0 135.9835339,33.7223251,0 135.9835339,33.7223161,0 135.9835339,33.7223071,0 135.9835339,33.7222981,0 135.9835339,33.7222891,0 135.9835285,33.7222846,0 135.9835231,33.7222801,0 135.9835231,33.722271,0 135.9835231,33.722262,0 135.9835177,33.7222575,0 135.9835123,33.722253,0 135.9835123,33.722244,0 135.9835123,33.722235,0 135.9835069,33.7222305,0 135.9835015,33.722226,0 135.9835015,33.7222169,0 135.9834961,33.7222124,0 135.9834907,33.7222079,0 135.9834853,33.7222034,0 135.9834799,33.7221989,0 135.9834799,33.7221899,0 135.9834745,33.7221854,0 135.9834691,33.7221809,0 135.9834638,33.7221764,0 135.9834584,33.7221719,0 135.9834584,33.7221628,0 135.983453,33.7221583,0 135.9834476,33.7221538,0 135.9834476,33.7221448,0 135.9834422,33.7221403,0 135.9834368,33.7221358,0 135.9834368,33.7221268,0 135.9834368,33.7221178,0 135.9834368,33.7221087,0 135.9834368,33.7220997,0 135.9834368,33.7220907,0 135.9834368,33.7220817,0 135.9834368,33.7220727,0 135.9834314,33.7220682,0 135.983426,33.7220637,0 135.983426,33.7220546,0 135.9834206,33.7220501,0 135.9834152,33.7220456,0 135.9834098,33.7220411,0 135.9834044,33.7220366,0 135.9834044,33.7220276,0 135.983399,33.7220231,0 135.9833936,33.7220186,0 135.9833883,33.7220141,0 135.9833829,33.7220095,0 135.9833829,33.7220005,0 135.9833775,33.721996,0 135.9833721,33.7219915,0 135.9833667,33.721987,0 135.9833613,33.7219825,0 135.9833613,33.7219735,0 135.9833559,33.721969,0 135.9833505,33.7219645,0 135.9833451,33.72196,0 135.9833397,33.7219554,0 135.9833343,33.7219509,0 135.9833289,33.7219464,0 135.9833235,33.7219419,0 135.9833181,33.7219374,0 135.9833127,33.7219329,0 135.9833073,33.7219284,0 135.9833019,33.7219239,0 135.9832966,33.7219194,0 135.9832912,33.7219149,0 135.9832858,33.7219104,0 135.9832804,33.7219058,0 135.983275,33.7219013,0 135.9832696,33.7218968,0 135.9832642,33.7218923,0 135.9832588,33.7218878,0 135.9832534,33.7218833,0 135.983248,33.7218788,0 135.9832426,33.7218743,0 135.9832426,33.7218653,0 135.9832372,33.7218608,0 135.9832318,33.7218562,0 135.9832264,33.7218517,0 135.983221,33.7218472,0 135.9832156,33.7218427,0 135.9832102,33.7218382,0 135.9832048,33.7218337,0 135.9831995,33.7218292,0 135.9831995,33.7218202,0 135.9831941,33.7218157,0 135.9831887,33.7218112,0 135.9831887,33.7218021,0 135.9831833,33.7217976,0 135.9831779,33.7217931,0 135.9831779,33.7217841,0 135.9831779,33.7217751,0 135.9831779,33.7217661,0 135.9831725,33.7217616,0 135.9831671,33.7217571,0 135.9831617,33.7217525,0 135.9831563,33.721748,0 135.9831509,33.7217435,0 135.9831455,33.721748,0 135.9831401,33.7217525,0 135.9831347,33.721748,0 135.9831293,33.7217435,0 135.9831239,33.721739,0 135.9831185,33.7217345,0 135.9831132,33.72173,0 135.9831078,33.7217255,0 135.9831024,33.721721,0 135.983097,33.7217165,0 135.9830916,33.721712,0 135.9830882,33.7217091,0</coordinates></LineString></Placemark><Placemark><name>slope break</name><description>rule: edge of ground ≥1 m above the plain and steeper than 12° (or ≥3 m above it), connected to the slopes above 40 m; GSI DEM1A</description><styleUrl>#edge</styleUrl><LineString><coordinates>135.9888687,33.7257746,0 135.9888585,33.7257746,0 135.9888531,33.7257701,0 135.9888477,33.7257656,0 135.9888369,33.7257656,0 135.9888261,33.7257656,0 135.9888153,33.7257656,0 135.9888045,33.7257656,0 135.9887991,33.7257701,0 135.9887937,33.7257746,0 135.9887883,33.7257791,0 135.9887829,33.7257836,0 135.9887775,33.7257881,0 135.9887775,33.7257971,0 135.9887775,33.7258062,0 135.9887775,33.7258152,0 135.9887829,33.7258197,0 135.9887883,33.7258242,0 135.9887883,33.7258332,0 135.9887937,33.7258377,0 135.9887991,33.7258422,0 135.9888045,33.7258467,0 135.9888099,33.7258512,0 135.9888153,33.7258557,0 135.9888207,33.7258603,0 135.9888207,33.7258693,0 135.9888207,33.7258783,0 135.9888261,33.7258828,0 135.9888315,33.7258873,0 135.9888315,33.7258963,0 135.9888369,33.7259008,0 135.9888423,33.7259053,0 135.9888423,33.7259144,0 135.9888477,33.7259189,0 135.9888531,33.7259234,0 135.9888531,33.7259324,0 135.9888585,33.7259369,0 135.9888638,33.7259414,0 135.9888692,33.7259459,0 135.9888746,33.7259504,0 135.9888746,33.7259594,0 135.98888,33.725964,0 135.9888854,33.7259685,0 135.9888854,33.7259775,0 135.9888854,33.7259865,0 135.9888872,33.7259879,0</coordinates></LineString></Placemark><Placemark><name>slope break</name><description>rule: edge of ground ≥1 m above the plain and steeper than 12° (or ≥3 m above it), connected to the slopes above 40 m; GSI DEM1A</description><styleUrl>#edge</styleUrl><LineString><coordinates>135.9888971,33.7261931,0 135.9888962,33.7261939,0 135.9888962,33.7262029,0 135.9888908,33.7262074,0 135.9888854,33.7262119,0 135.98888,33.7262164,0 135.9888746,33.7262209,0 135.9888692,33.7262254,0 135.9888638,33.7262299,0 135.9888584,33.7262344,0 135.988853,33.726239,0 135.9888476,33.7262435,0 135.9888368,33.7262435,0 135.988826,33.7262435,0 135.9888152,33.7262435,0 135.9888099,33.726239,0 135.9888045,33.7262344,0 135.9887991,33.7262299,0 135.9887991,33.7262209,0 135.9887991,33.7262119,0 135.9887991,33.7262029,0 135.9887991,33.7261939,0 135.9887937,33.7261894,0 135.9887883,33.7261849,0 135.9887829,33.7261803,0 135.9887775,33.7261758,0 135.9887721,33.7261713,0 135.9887667,33.7261668,0 135.9887667,33.7261578,0 135.9887667,33.7261488,0 135.9887613,33.7261443,0 135.9887559,33.7261398,0 135.9887505,33.7261353,0 135.9887451,33.7261307,0 135.9887397,33.7261262,0 135.9887343,33.7261217,0 135.9887289,33.7261172,0 135.9887235,33.7261127,0 135.9887181,33.7261082,0 135.9887128,33.7261037,0 135.9887074,33.7260992,0 135.9886966,33.7260992,0 135.9886858,33.7260992,0 135.9886804,33.7260947,0 135.988675,33.7260902,0 135.9886642,33.7260902,0 135.9886534,33.7260902,0 135.988648,33.7260857,0 135.9886426,33.7260811,0 135.9886318,33.7260811,0 135.988621,33.7260811,0 135.9886102,33.7260811,0 135.9885995,33.7260811,0 135.9885941,33.7260766,0 135.9885887,33.7260721,0 135.9885779,33.7260721,0 135.9885725,33.7260766,0 135.9885671,33.7260811,0 135.9885617,33.7260856,0 135.9885563,33.7260902,0 135.9885509,33.7260947,0 135.9885509,33.7261037,0 135.9885509,33.7261127,0 135.9885455,33.7261172,0 135.9885401,33.7261217,0 135.9885401,33.7261307,0 135.9885401,33.7261397,0 135.9885401,33.7261488,0 135.9885401,33.7261578,0 135.9885401,33.7261668,0 135.9885401,33.7261758,0 135.9885401,33.7261848,0 135.9885401,33.7261938,0 135.9885455,33.7261984,0 135.9885509,33.7262029,0 135.9885563,33.7262074,0 135.9885617,33.7262119,0 135.9885617,33.7262209,0 135.9885617,33.7262299,0 135.9885671,33.7262344,0 135.9885725,33.7262389,0 135.9885725,33.7262479,0 135.9885725,33.726257,0 135.9885725,33.726266,0 135.9885778,33.7262705,0 135.9885832,33.726275,0 135.9885832,33.726284,0 135.9885886,33.7262885,0 135.988594,33.726293,0 135.988594,33.726302,0 135.9885994,33.7263066,0 135.9886048,33.7263111,0 135.9886102,33.7263156,0 135.9886156,33.7263201,0 135.988621,33.7263246,0 135.9886318,33.7263246,0 135.9886372,33.7263291,0 135.9886426,33.7263336,0 135.988648,33.7263381,0 135.9886426,33.7263426,0 135.9886318,33.7263426,0 135.9886264,33.7263471,0 135.988621,33.7263516,0 135.9886156,33.7263562,0 135.9886102,33.7263607,0 135.9886048,33.7263652,0 135.9885994,33.7263697,0 135.988594,33.7263742,0 135.9885886,33.7263787,0 135.9885832,33.7263832,0 135.9885778,33.7263877,0 135.9885724,33.7263922,0 135.9885724,33.7264012,0 135.988567,33.7264057,0 135.9885616,33.7264102,0 135.9885562,33.7264148,0 135.9885508,33.7264193,0 135.9885508,33.7264283,0 135.9885455,33.7264328,0 135.9885401,33.7264373,0 135.9885347,33.7264418,0 135.9885293,33.7264463,0 135.9885239,33.7264508,0 135.9885185,33.7264553,0 135.9885131,33.7264598,0 135.9885077,33.7264643,0 135.9885077,33.7264734,0 135.9885023,33.7264779,0 135.9884969,33.7264824,0 135.9884915,33.7264869,0 135.9884807,33.7264869,0 135.9884753,33.7264914,0 135.9884699,33.7264959,0 135.9884645,33.7265004,0 135.9884591,33.7265049,0 135.9884537,33.7265094,0 135.9884537,33.7265184,0 135.9884537,33.7265275,0 135.9884483,33.726532,0 135.9884375,33.726532,0 135.9884321,33.7265274,0 135.9884267,33.7265229,0 135.9884213,33.7265274,0 135.9884159,33.726532,0 135.9884106,33.7265365,0 135.9884052,33.726541,0 135.9883998,33.7265455,0 135.9883998,33.7265545,0 135.9883998,33.7265635,0 135.9883998,33.7265725,0 135.9883944,33.726577,0 135.988389,33.7265815,0 135.988389,33.7265906,0 135.9883836,33.7265951,0 135.9883782,33.7265996,0 135.9883728,33.7266041,0 135.988362,33.7266041,0 135.9883512,33.7266041,0 135.9883458,33.7266086,0 135.9883404,33.7266131,0 135.9883296,33.7266131,0 135.9883188,33.7266131,0 135.988308,33.7266131,0 135.9882972,33.7266131,0 135.9882918,33.7266176,0 135.9882864,33.7266221,0 135.9882757,33.7266221,0 135.9882703,33.7266266,0 135.9882649,33.7266311,0 135.9882595,33.7266356,0 135.9882541,33.7266401,0 135.9882487,33.7266446,0 135.9882541,33.7266492,0 135.9882595,33.7266537,0 135.9882595,33.7266627,0 135.9882541,33.7266672,0 135.9882487,33.7266717,0 135.9882541,33.7266762,0 135.9882595,33.7266807,0 135.9882649,33.7266852,0 135.9882702,33.7266897,0 135.9882756,33.7266942,0 135.9882864,33.7266942,0 135.9882972,33.7266942,0 135.988308,33.7266942,0 135.9883188,33.7266942,0 135.9883242,33.7266988,0 135.9883296,33.7267033,0 135.988335,33.7267078,0 135.9883296,33.7267123,0 135.9883242,33.7267168,0 135.9883242,33.7267258,0 135.9883188,33.7267303,0 135.9883134,33.7267348,0 135.9883134,33.7267438,0 135.988308,33.7267483,0 135.9883026,33.7267529,0 135.9883026,33.7267619,0 135.9882972,33.7267664,0 135.9882918,33.7267709,0 135.9882918,33.7267799,0 135.9882864,33.7267844,0 135.988281,33.7267889,0 135.988281,33.7267979,0 135.9882756,33.7268024,0 135.9882702,33.7268069,0 135.9882648,33.7268115,0 135.9882594,33.726816,0 135.988254,33.7268205,0 135.9882433,33.7268205,0 135.9882379,33.726825,0 135.9882325,33.7268295,0 135.9882271,33.726834,0 135.9882217,33.7268385,0 135.9882109,33.7268385,0 135.9882055,33.726843,0 135.9882001,33.7268475,0 135.9881947,33.726852,0 135.9881893,33.7268565,0 135.9881839,33.726861,0 135.9881785,33.7268655,0 135.9881677,33.7268655,0 135.9881623,33.7268701,0 135.9881569,33.7268746,0 135.9881461,33.7268746,0 135.9881407,33.7268791,0 135.9881353,33.7268836,0 135.9881299,33.7268881,0 135.9881245,33.7268926,0 135.9881191,33.7268971,0 135.9881138,33.7269016,0 135.9881084,33.7269061,0 135.988103,33.7269106,0 135.9880922,33.7269106,0 135.9880868,33.7269151,0 135.9880814,33.7269196,0 135.988076,33.7269241,0 135.9880706,33.7269287,0 135.9880652,33.7269332,0 135.9880598,33.7269377,0 135.9880544,33.7269422,0 135.988049,33.7269467,0 135.9880382,33.7269467,0 135.9880328,33.7269512,0 135.9880274,33.7269557,0 135.9880166,33.7269557,0 135.9880058,33.7269557,0 135.9880004,33.7269602,0 135.987995,33.7269647,0 135.9879896,33.7269692,0 135.9879843,33.7269737,0 135.9879789,33.7269782,0 135.9879735,33.7269827,0 135.9879681,33.7269873,0 135.9879681,33.7269963,0 135.9879627,33.7270008,0 135.9879573,33.7270053,0 135.9879519,33.7270098,0 135.9879465,33.7270143,0 135.9879465,33.7270233,0 135.9879411,33.7270278,0 135.9879357,33.7270323,0 135.9879357,33.7270413,0 135.9879303,33.7270459,0 135.9879249,33.7270504,0 135.9879249,33.7270594,0 135.9879195,33.7270639,0 135.9879141,33.7270684,0 135.9879141,33.7270774,0 135.9879141,33.7270864,0 135.9879087,33.7270909,0 135.9879033,33.7270954,0 135.9879033,33.7271045,0 135.9879033,33.7271135,0 135.9878979,33.727118,0 135.9878925,33.7271225,0 135.9878871,33.727127,0 135.9878817,33.7271315,0 135.9878817,33.7271405,0 135.9878817,33.7271495,0 135.9878763,33.7271541,0 135.9878709,33.7271586,0 135.9878709,33.7271676,0 135.9878709,33.7271766,0 135.9878709,33.7271856,0 135.9878709,33.7271946,0 135.9878709,33.7272036,0 135.9878709,33.7272127,0 135.9878709,33.7272217,0 135.9878709,33.7272307,0 135.9878709,33.7272397,0 135.9878709,33.7272487,0 135.9878709,33.7272577,0 135.9878709,33.7272668,0 135.9878709,33.7272758,0 135.9878709,33.7272848,0 135.9878709,33.7272938,0 135.9878709,33.7273028,0 135.9878763,33.7273073,0 135.9878817,33.7273118,0 135.9878871,33.7273164,0 135.9878925,33.7273209,0 135.9878979,33.7273254,0 135.9879087,33.7273254,0 135.9879141,33.7273299,0 135.9879195,33.7273344,0 135.9879248,33.7273389,0 135.9879302,33.7273434,0 135.9879356,33.7273479,0 135.987941,33.7273524,0 135.9879464,33.7273569,0 135.9879518,33.7273614,0 135.9879626,33.7273614,0 135.987968,33.7273659,0 135.9879734,33.7273705,0 135.9879842,33.7273705,0 135.9879896,33.727375,0 135.987995,33.7273795,0 135.9880058,33.7273795,0 135.9880112,33.727384,0 135.9880112,33.727393,0 135.9880112,33.727402,0 135.9880058,33.7274065,0 135.9880004,33.727411,0 135.9880004,33.7274201,0 135.9880004,33.7274291,0 135.9880004,33.7274381,0 135.987995,33.7274426,0 135.9879896,33.7274471,0 135.9879896,33.7274561,0 135.9879896,33.7274651,0 135.9879896,33.7274742,0 135.9879896,33.7274832,0 135.9879842,33.7274877,0 135.9879788,33.7274922,0 135.9879788,33.7275012,0 135.9879734,33.7275057,0 135.987968,33.7275102,0 135.987968,33.7275192,0 135.9879626,33.7275237,0 135.9879572,33.7275282,0 135.9879572,33.7275373,0 135.9879626,33.7275418,0 135.987968,33.7275463,0 135.987968,33.7275553,0 135.987968,33.7275643,0 135.987968,33.7275733,0 135.987968,33.7275823,0 135.987968,33.7275914,0 135.987968,33.7276004,0 135.9879734,33.7276049,0 135.9879788,33.7276094,0 135.9879788,33.7276184,0 135.9879788,33.7276274,0 135.9879842,33.7276319,0 135.9879896,33.7276365,0 135.9879896,33.7276455,0 135.9879949,33.72765,0 135.9880003,33.7276545,0 135.9880003,33.7276635,0 135.9880003,33.7276725,0 135.9879949,33.727677,0 135.9879895,33.7276815,0 135.9879895,33.7276905,0 135.9879895,33.7276996,0 135.9879895,33.7277086,0 135.9879895,33.7277176,0 135.9879949,33.7277221,0 135.9880003,33.7277266,0 135.9880057,33.7277311,0 135.9880111,33.7277356,0 135.9880165,33.7277401,0 135.9880219,33.7277447,0 135.9880219,33.7277537,0 135.9880273,33.7277582,0 135.9880327,33.7277627,0 135.9880327,33.7277717,0 135.9880327,33.7277807,0 135.9880327,33.7277897,0 135.9880381,33.7277942,0 135.9880435,33.7277988,0 135.9880435,33.7278078,0 135.9880489,33.7278123,0 135.9880543,33.7278168,0 135.9880597,33.7278213,0 135.9880651,33.7278258,0 135.9880705,33.7278303,0 135.9880759,33.7278348,0 135.9880812,33.7278393,0 135.9880866,33.7278438,0 135.9880866,33.7278529,0 135.988092,33.7278574,0 135.9880974,33.7278619,0 135.9880974,33.7278709,0 135.9880974,33.7278799,0 135.9880974,33.7278889,0 135.9881028,33.7278934,0 135.9881082,33.7278979,0 135.9881131,33.727902,0</coordinates></LineString></Placemark><Placemark><name>transect</name><description>from: 神倉神社 (summit, at Gotobiki-iwa); via: the path and the stone steps (OSM 121369321, 121366071) to the bridge over 市田川; to: 新宮市役所; length_m: 1132</description><styleUrl>#tr</styleUrl><LineString><coordinates>135.9828128,33.7221968,0 135.9828667,33.7221595,0 135.9829079,33.7222591,0 135.9828541,33.7222815,0 135.9826581,33.7223642,0 135.9825216,33.7224351,0 135.9824408,33.7224863,0 135.98244,33.7224891,0 135.9824219,33.7225521,0 135.982406,33.7226077,0 135.9823745,33.7227184,0 135.9823818,33.7228283,0 135.9823998,33.7229172,0 135.9824663,33.7230246,0 135.9825986,33.7231426,0 135.9826291,33.7232192,0 135.9826722,33.7232961,0 135.982697,33.7233743,0 135.9828278,33.7234627,0 135.9828861,33.7234986,0 135.9830283,33.7235996,0 135.9831651,33.7236698,0 135.9832805,33.7237024,0 135.9834555,33.7237581,0 135.9835526,33.7237925,0 135.9837297,33.7238634,0 135.9839255,33.7239175,0 135.9839965,33.7239459,0 135.9840475,33.7239961,0 135.9840496,33.7240523,0 135.984068,33.7240598,0 135.9841121,33.72408,0 135.984116,33.7241,0 135.98419,33.72433,0 135.992493,33.724121,0</coordinates></LineString></Placemark></Document></kml>
