<?xml version="1.0" encoding="UTF-8"?>
<gpx version="1.1" creator="no-one-is-an-island kansai/field" xmlns="http://www.topografix.com/GPX/1/1"><wpt lat="33.726901" lon="135.985389"><name>B01</name><desc>channel crossing, 4.7 m from the north end; OSM residential</desc></wpt><wpt lat="33.726315" lon="135.985114"><name>B02</name><desc>channel crossing, 93.0 m from the north end; OSM residential</desc></wpt><wpt lat="33.726029" lon="135.985085"><name>B03</name><desc>channel crossing, 124.9 m from the north end; OSM service</desc></wpt><wpt lat="33.725689" lon="135.98505"><name>B04</name><desc>channel crossing, 162.7 m from the north end; OSM residential</desc></wpt><wpt lat="33.725181" lon="135.984461"><name>B05</name><desc>channel crossing, 241.2 m from the north end; OSM residential</desc></wpt><wpt lat="33.724337" lon="135.984244"><name>B06</name><desc>channel crossing, 337.4 m from the north end; OSM unclassified</desc></wpt><wpt lat="33.721324" lon="135.98379"><name>B07</name><desc>channel crossing, 682.2 m from the north end; OSM unclassified</desc></wpt><trk><name>transect: Gotobiki-iwa → steps → bridge → city hall</name><trkseg><trkpt lat="33.722197" lon="135.982813"/><trkpt lat="33.722160" lon="135.982867"/><trkpt lat="33.722259" lon="135.982908"/><trkpt lat="33.722282" lon="135.982854"/><trkpt lat="33.722364" lon="135.982658"/><trkpt lat="33.722435" lon="135.982522"/><trkpt lat="33.722486" lon="135.982441"/><trkpt lat="33.722489" lon="135.982440"/><trkpt lat="33.722552" lon="135.982422"/><trkpt lat="33.722608" lon="135.982406"/><trkpt lat="33.722718" lon="135.982374"/><trkpt lat="33.722828" lon="135.982382"/><trkpt lat="33.722917" lon="135.982400"/><trkpt lat="33.723025" lon="135.982466"/><trkpt lat="33.723143" lon="135.982599"/><trkpt lat="33.723219" lon="135.982629"/><trkpt lat="33.723296" lon="135.982672"/><trkpt lat="33.723374" lon="135.982697"/><trkpt lat="33.723463" lon="135.982828"/><trkpt lat="33.723499" lon="135.982886"/><trkpt lat="33.723600" lon="135.983028"/><trkpt lat="33.723670" lon="135.983165"/><trkpt lat="33.723702" lon="135.983281"/><trkpt lat="33.723758" lon="135.983455"/><trkpt lat="33.723793" lon="135.983553"/><trkpt lat="33.723863" lon="135.983730"/><trkpt lat="33.723917" lon="135.983925"/><trkpt lat="33.723946" lon="135.983996"/><trkpt lat="33.723996" lon="135.984048"/><trkpt lat="33.724052" lon="135.984050"/><trkpt lat="33.724060" lon="135.984068"/><trkpt lat="33.724080" lon="135.984112"/><trkpt lat="33.724100" lon="135.984116"/><trkpt lat="33.724330" lon="135.984190"/><trkpt lat="33.724121" lon="135.992493"/></trkseg></trk><trk><name>mountain foot (median of four definitions)</name><trkseg><trkpt lat="33.727881" lon="135.983665"/><trkpt lat="33.727856" lon="135.983599"/><trkpt lat="33.727832" lon="135.983561"/><trkpt lat="33.727802" lon="135.983549"/><trkpt lat="33.727764" lon="135.983548"/><trkpt lat="33.727734" lon="135.983533"/><trkpt lat="33.727692" lon="135.983530"/><trkpt lat="33.727644" lon="135.983538"/><trkpt lat="33.727602" lon="135.983544"/><trkpt lat="33.727570" lon="135.983508"/><trkpt lat="33.727532" lon="135.983442"/><trkpt lat="33.727484" lon="135.983378"/><trkpt lat="33.727437" lon="135.983348"/><trkpt lat="33.727382" lon="135.983377"/><trkpt lat="33.727356" lon="135.983477"/><trkpt lat="33.727324" lon="135.983521"/><trkpt lat="33.727307" lon="135.983597"/><trkpt lat="33.727252" lon="135.983581"/><trkpt lat="33.727192" lon="135.983557"/><trkpt lat="33.727154" lon="135.983586"/><trkpt lat="33.727123" lon="135.983622"/><trkpt lat="33.727096" lon="135.983646"/><trkpt lat="33.727064" lon="135.983681"/><trkpt lat="33.727029" lon="135.983705"/><trkpt lat="33.726994" lon="135.983716"/><trkpt lat="33.726959" lon="135.983723"/><trkpt lat="33.726932" lon="135.983726"/><trkpt lat="33.726900" lon="135.983743"/><trkpt lat="33.726864" lon="135.983745"/><trkpt lat="33.726829" lon="135.983762"/><trkpt lat="33.726792" lon="135.983757"/><trkpt lat="33.726753" lon="135.983738"/><trkpt lat="33.726717" lon="135.983740"/><trkpt lat="33.726684" lon="135.983758"/><trkpt lat="33.726648" lon="135.983763"/><trkpt lat="33.726609" lon="135.983779"/><trkpt lat="33.726572" lon="135.983795"/><trkpt lat="33.726539" lon="135.983827"/><trkpt lat="33.726506" lon="135.983854"/><trkpt lat="33.726471" lon="135.983875"/><trkpt lat="33.726435" lon="135.983885"/><trkpt lat="33.726399" lon="135.983896"/><trkpt lat="33.726363" lon="135.983909"/><trkpt lat="33.726327" lon="135.983918"/><trkpt lat="33.726288" lon="135.983897"/><trkpt lat="33.726254" lon="135.983850"/><trkpt lat="33.726216" lon="135.983815"/><trkpt lat="33.726184" lon="135.983768"/><trkpt lat="33.726143" lon="135.983935"/><trkpt lat="33.726108" lon="135.983891"/><trkpt lat="33.726067" lon="135.983855"/><trkpt lat="33.726035" lon="135.983892"/><trkpt lat="33.725999" lon="135.983894"/><trkpt lat="33.725963" lon="135.983913"/><trkpt lat="33.725927" lon="135.983910"/><trkpt lat="33.725892" lon="135.983913"/><trkpt lat="33.725855" lon="135.983934"/><trkpt lat="33.725819" lon="135.983920"/><trkpt lat="33.725783" lon="135.983904"/><trkpt lat="33.725747" lon="135.983886"/><trkpt lat="33.725711" lon="135.983884"/><trkpt lat="33.725677" lon="135.983861"/><trkpt lat="33.725640" lon="135.983856"/><trkpt lat="33.725603" lon="135.983853"/><trkpt lat="33.725569" lon="135.983855"/><trkpt lat="33.725533" lon="135.983872"/><trkpt lat="33.725496" lon="135.983866"/><trkpt lat="33.725459" lon="135.983870"/><trkpt lat="33.725423" lon="135.983874"/><trkpt lat="33.725387" lon="135.983871"/><trkpt lat="33.725353" lon="135.983845"/><trkpt lat="33.725317" lon="135.983842"/><trkpt lat="33.725279" lon="135.983855"/><trkpt lat="33.725243" lon="135.983857"/><trkpt lat="33.725205" lon="135.983874"/><trkpt lat="33.725170" lon="135.983870"/><trkpt lat="33.725135" lon="135.983875"/><trkpt lat="33.725098" lon="135.983872"/><trkpt lat="33.725062" lon="135.983863"/><trkpt lat="33.725026" lon="135.983858"/><trkpt lat="33.724990" lon="135.983856"/><trkpt lat="33.724954" lon="135.983866"/><trkpt lat="33.724918" lon="135.983875"/><trkpt lat="33.724882" lon="135.983866"/><trkpt lat="33.724845" lon="135.983858"/><trkpt lat="33.724809" lon="135.983867"/><trkpt lat="33.724774" lon="135.983884"/><trkpt lat="33.724739" lon="135.983898"/><trkpt lat="33.724702" lon="135.983896"/><trkpt lat="33.724667" lon="135.983908"/><trkpt lat="33.724632" lon="135.983919"/><trkpt lat="33.724594" lon="135.983923"/><trkpt lat="33.724558" lon="135.983933"/><trkpt lat="33.724520" lon="135.983924"/><trkpt lat="33.724482" lon="135.983930"/><trkpt lat="33.724437" lon="135.983916"/><trkpt lat="33.724395" lon="135.983911"/><trkpt lat="33.724364" lon="135.983935"/><trkpt lat="33.724338" lon="135.983986"/><trkpt lat="33.724308" lon="135.984026"/><trkpt lat="33.724277" lon="135.984056"/><trkpt lat="33.724242" lon="135.984075"/><trkpt lat="33.724204" lon="135.984077"/><trkpt lat="33.724162" lon="135.984073"/><trkpt lat="33.724122" lon="135.984065"/><trkpt lat="33.724086" lon="135.984066"/><trkpt lat="33.724052" lon="135.984092"/><trkpt lat="33.724016" lon="135.984086"/><trkpt lat="33.723979" lon="135.984089"/><trkpt lat="33.723945" lon="135.984109"/><trkpt lat="33.723907" lon="135.984125"/><trkpt lat="33.723866" lon="135.984141"/><trkpt lat="33.723828" lon="135.984137"/><trkpt lat="33.723794" lon="135.984124"/><trkpt lat="33.723756" lon="135.984134"/><trkpt lat="33.723727" lon="135.984077"/><trkpt lat="33.723696" lon="135.984026"/><trkpt lat="33.723664" lon="135.984010"/><trkpt lat="33.723624" lon="135.984027"/><trkpt lat="33.723579" lon="135.984045"/><trkpt lat="33.723532" lon="135.984066"/><trkpt lat="33.723494" lon="135.984049"/><trkpt lat="33.723466" lon="135.984011"/><trkpt lat="33.723429" lon="135.983993"/><trkpt lat="33.723392" lon="135.983974"/><trkpt lat="33.723361" lon="135.983940"/><trkpt lat="33.723345" lon="135.983872"/><trkpt lat="33.723308" lon="135.983849"/><trkpt lat="33.723268" lon="135.983835"/><trkpt lat="33.723223" lon="135.983834"/><trkpt lat="33.723178" lon="135.983829"/><trkpt lat="33.723140" lon="135.983807"/><trkpt lat="33.723105" lon="135.983792"/><trkpt lat="33.723068" lon="135.983776"/><trkpt lat="33.723031" lon="135.983753"/><trkpt lat="33.723003" lon="135.983711"/><trkpt lat="33.722978" lon="135.983665"/><trkpt lat="33.722940" lon="135.983644"/><trkpt lat="33.722894" lon="135.983643"/><trkpt lat="33.722861" lon="135.983616"/><trkpt lat="33.722825" lon="135.983600"/><trkpt lat="33.722792" lon="135.983529"/><trkpt lat="33.722755" lon="135.983543"/><trkpt lat="33.722718" lon="135.983554"/><trkpt lat="33.722681" lon="135.983575"/><trkpt lat="33.722645" lon="135.983587"/><trkpt lat="33.722610" lon="135.983635"/><trkpt lat="33.722574" lon="135.983644"/><trkpt lat="33.722537" lon="135.983638"/><trkpt lat="33.722498" lon="135.983636"/><trkpt lat="33.722463" lon="135.983617"/><trkpt lat="33.722426" lon="135.983600"/><trkpt lat="33.722392" lon="135.983579"/><trkpt lat="33.722358" lon="135.983556"/><trkpt lat="33.722322" lon="135.983547"/></trkseg></trk></gpx>
